<?xml version="1.0" encoding="UTF-8"?>
<ndm xmlns:xsi="http://www.w3.org/2001/XMLSchema-instance" xsi:noNamespaceSchemaLocation="https://sanaregistry.org/r/ndmxml_unqualified/ndmxml-2.0.0-master-2.0.xsd">
<omm id="CCSDS_OMM_VERS" version="2.0">
<header><CREATION_DATE/><ORIGINATOR/></header><body><segment><metadata><OBJECT_NAME>ONEWEB-0545</OBJECT_NAME><OBJECT_ID>2022-166F</OBJECT_ID><CENTER_NAME>EARTH</CENTER_NAME><REF_FRAME>TEME</REF_FRAME><TIME_SYSTEM>UTC</TIME_SYSTEM><MEAN_ELEMENT_THEORY>SGP4</MEAN_ELEMENT_THEORY></metadata><data><meanElements><EPOCH>2025-12-10T18:46:16.065696</EPOCH><MEAN_MOTION>13.21826181</MEAN_MOTION><ECCENTRICITY>.0002006</ECCENTRICITY><INCLINATION>87.9217</INCLINATION><RA_OF_ASC_NODE>281.5647</RA_OF_ASC_NODE><ARG_OF_PERICENTER>89.0634</ARG_OF_PERICENTER><MEAN_ANOMALY>271.0730</MEAN_ANOMALY></meanElements><tleParameters><EPHEMERIS_TYPE>0</EPHEMERIS_TYPE><CLASSIFICATION_TYPE>U</CLASSIFICATION_TYPE><NORAD_CAT_ID>54647</NORAD_CAT_ID><ELEMENT_SET_NO>999</ELEMENT_SET_NO><REV_AT_EPOCH>14661</REV_AT_EPOCH><BSTAR>.16329E-3</BSTAR><MEAN_MOTION_DOT>.8E-6</MEAN_MOTION_DOT><MEAN_MOTION_DDOT>0</MEAN_MOTION_DDOT></tleParameters></data></segment></body></omm>
<omm id="CCSDS_OMM_VERS" version="2.0">
<header><CREATION_DATE/><ORIGINATOR/></header><body><segment><metadata><OBJECT_NAME>ONEWEB-0580</OBJECT_NAME><OBJECT_ID>2022-166G</OBJECT_ID><CENTER_NAME>EARTH</CENTER_NAME><REF_FRAME>TEME</REF_FRAME><TIME_SYSTEM>UTC</TIME_SYSTEM><MEAN_ELEMENT_THEORY>SGP4</MEAN_ELEMENT_THEORY></metadata><data><meanElements><EPOCH>2025-12-10T12:41:20.525856</EPOCH><MEAN_MOTION>13.21825455</MEAN_MOTION><ECCENTRICITY>.000179</ECCENTRICITY><INCLINATION>87.9217</INCLINATION><RA_OF_ASC_NODE>281.6142</RA_OF_ASC_NODE><ARG_OF_PERICENTER>88.6960</ARG_OF_PERICENTER><MEAN_ANOMALY>271.4379</MEAN_ANOMALY></meanElements><tleParameters><EPHEMERIS_TYPE>0</EPHEMERIS_TYPE><CLASSIFICATION_TYPE>U</CLASSIFICATION_TYPE><NORAD_CAT_ID>54648</NORAD_CAT_ID><ELEMENT_SET_NO>999</ELEMENT_SET_NO><REV_AT_EPOCH>14662</REV_AT_EPOCH><BSTAR>.32765E-3</BSTAR><MEAN_MOTION_DOT>.148E-5</MEAN_MOTION_DOT><MEAN_MOTION_DDOT>0</MEAN_MOTION_DDOT></tleParameters></data></segment></body></omm>
<omm id="CCSDS_OMM_VERS" version="2.0">
<header><CREATION_DATE/><ORIGINATOR/></header><body><segment><metadata><OBJECT_NAME>ONEWEB-0582</OBJECT_NAME><OBJECT_ID>2022-166H</OBJECT_ID><CENTER_NAME>EARTH</CENTER_NAME><REF_FRAME>TEME</REF_FRAME><TIME_SYSTEM>UTC</TIME_SYSTEM><MEAN_ELEMENT_THEORY>SGP4</MEAN_ELEMENT_THEORY></metadata><data><meanElements><EPOCH>2025-12-10T19:09:57.371616</EPOCH><MEAN_MOTION>13.21825047</MEAN_MOTION><ECCENTRICITY>.0001921</ECCENTRICITY><INCLINATION>87.9219</INCLINATION><RA_OF_ASC_NODE>281.5533</RA_OF_ASC_NODE><ARG_OF_PERICENTER>92.7929</ARG_OF_PERICENTER><MEAN_ANOMALY>267.3425</MEAN_ANOMALY></meanElements><tleParameters><EPHEMERIS_TYPE>0</EPHEMERIS_TYPE><CLASSIFICATION_TYPE>U</CLASSIFICATION_TYPE><NORAD_CAT_ID>54649</NORAD_CAT_ID><ELEMENT_SET_NO>999</ELEMENT_SET_NO><REV_AT_EPOCH>14663</REV_AT_EPOCH><BSTAR>-.12082E-4</BSTAR><MEAN_MOTION_DOT>.8E-7</MEAN_MOTION_DOT><MEAN_MOTION_DDOT>0</MEAN_MOTION_DDOT></tleParameters></data></segment></body></omm>
<omm id="CCSDS_OMM_VERS" version="2.0">
<header><CREATION_DATE/><ORIGINATOR/></header><body><segment><metadata><OBJECT_NAME>ONEWEB-0583</OBJECT_NAME><OBJECT_ID>2022-166J</OBJECT_ID><CENTER_NAME>EARTH</CENTER_NAME><REF_FRAME>TEME</REF_FRAME><TIME_SYSTEM>UTC</TIME_SYSTEM><MEAN_ELEMENT_THEORY>SGP4</MEAN_ELEMENT_THEORY></metadata><data><meanElements><EPOCH>2025-12-10T19:26:32.550144</EPOCH><MEAN_MOTION>13.21824697</MEAN_MOTION><ECCENTRICITY>.0001866</ECCENTRICITY><INCLINATION>87.9217</INCLINATION><RA_OF_ASC_NODE>281.5757</RA_OF_ASC_NODE><ARG_OF_PERICENTER>80.2245</ARG_OF_PERICENTER><MEAN_ANOMALY>279.9099</MEAN_ANOMALY></meanElements><tleParameters><EPHEMERIS_TYPE>0</EPHEMERIS_TYPE><CLASSIFICATION_TYPE>U</CLASSIFICATION_TYPE><NORAD_CAT_ID>54650</NORAD_CAT_ID><ELEMENT_SET_NO>999</ELEMENT_SET_NO><REV_AT_EPOCH>14664</REV_AT_EPOCH><BSTAR>-.41817E-4</BSTAR><MEAN_MOTION_DOT>-.4E-7</MEAN_MOTION_DOT><MEAN_MOTION_DDOT>0</MEAN_MOTION_DDOT></tleParameters></data></segment></body></omm>
<omm id="CCSDS_OMM_VERS" version="2.0">
<header><CREATION_DATE/><ORIGINATOR/></header><body><segment><metadata><OBJECT_NAME>ONEWEB-0584</OBJECT_NAME><OBJECT_ID>2022-166K</OBJECT_ID><CENTER_NAME>EARTH</CENTER_NAME><REF_FRAME>TEME</REF_FRAME><TIME_SYSTEM>UTC</TIME_SYSTEM><MEAN_ELEMENT_THEORY>SGP4</MEAN_ELEMENT_THEORY></metadata><data><meanElements><EPOCH>2025-12-10T12:38:57.241824</EPOCH><MEAN_MOTION>13.21824518</MEAN_MOTION><ECCENTRICITY>.0001719</ECCENTRICITY><INCLINATION>87.9216</INCLINATION><RA_OF_ASC_NODE>281.6186</RA_OF_ASC_NODE><ARG_OF_PERICENTER>90.1054</ARG_OF_PERICENTER><MEAN_ANOMALY>270.0277</MEAN_ANOMALY></meanElements><tleParameters><EPHEMERIS_TYPE>0</EPHEMERIS_TYPE><CLASSIFICATION_TYPE>U</CLASSIFICATION_TYPE><NORAD_CAT_ID>54651</NORAD_CAT_ID><ELEMENT_SET_NO>999</ELEMENT_SET_NO><REV_AT_EPOCH>14659</REV_AT_EPOCH><BSTAR>.10873E-3</BSTAR><MEAN_MOTION_DOT>.58E-6</MEAN_MOTION_DOT><MEAN_MOTION_DDOT>0</MEAN_MOTION_DDOT></tleParameters></data></segment></body></omm>
<omm id="CCSDS_OMM_VERS" version="2.0">
<header><CREATION_DATE/><ORIGINATOR/></header><body><segment><metadata><OBJECT_NAME>ONEWEB-0585</OBJECT_NAME><OBJECT_ID>2022-166L</OBJECT_ID><CENTER_NAME>EARTH</CENTER_NAME><REF_FRAME>TEME</REF_FRAME><TIME_SYSTEM>UTC</TIME_SYSTEM><MEAN_ELEMENT_THEORY>SGP4</MEAN_ELEMENT_THEORY></metadata><data><meanElements><EPOCH>2025-12-10T18:41:30.480000</EPOCH><MEAN_MOTION>13.21827739</MEAN_MOTION><ECCENTRICITY>.0001747</ECCENTRICITY><INCLINATION>87.9216</INCLINATION><RA_OF_ASC_NODE>281.5531</RA_OF_ASC_NODE><ARG_OF_PERICENTER>73.6191</ARG_OF_PERICENTER><MEAN_ANOMALY>286.5135</MEAN_ANOMALY></meanElements><tleParameters><EPHEMERIS_TYPE>0</EPHEMERIS_TYPE><CLASSIFICATION_TYPE>U</CLASSIFICATION_TYPE><NORAD_CAT_ID>54652</NORAD_CAT_ID><ELEMENT_SET_NO>999</ELEMENT_SET_NO><REV_AT_EPOCH>14663</REV_AT_EPOCH><BSTAR>.18076E-3</BSTAR><MEAN_MOTION_DOT>.88E-6</MEAN_MOTION_DOT><MEAN_MOTION_DDOT>0</MEAN_MOTION_DDOT></tleParameters></data></segment></body></omm>
<omm id="CCSDS_OMM_VERS" version="2.0">
<header><CREATION_DATE/><ORIGINATOR/></header><body><segment><metadata><OBJECT_NAME>ONEWEB-0586</OBJECT_NAME><OBJECT_ID>2022-166M</OBJECT_ID><CENTER_NAME>EARTH</CENTER_NAME><REF_FRAME>TEME</REF_FRAME><TIME_SYSTEM>UTC</TIME_SYSTEM><MEAN_ELEMENT_THEORY>SGP4</MEAN_ELEMENT_THEORY></metadata><data><meanElements><EPOCH>2025-12-10T13:33:29.015424</EPOCH><MEAN_MOTION>13.21824595</MEAN_MOTION><ECCENTRICITY>.0001837</ECCENTRICITY><INCLINATION>87.9218</INCLINATION><RA_OF_ASC_NODE>281.6210</RA_OF_ASC_NODE><ARG_OF_PERICENTER>82.6690</ARG_OF_PERICENTER><MEAN_ANOMALY>277.4653</MEAN_ANOMALY></meanElements><tleParameters><EPHEMERIS_TYPE>0</EPHEMERIS_TYPE><CLASSIFICATION_TYPE>U</CLASSIFICATION_TYPE><NORAD_CAT_ID>54653</NORAD_CAT_ID><ELEMENT_SET_NO>999</ELEMENT_SET_NO><REV_AT_EPOCH>14660</REV_AT_EPOCH><BSTAR>.13113E-3</BSTAR><MEAN_MOTION_DOT>.67E-6</MEAN_MOTION_DOT><MEAN_MOTION_DDOT>0</MEAN_MOTION_DDOT></tleParameters></data></segment></body></omm>
<omm id="CCSDS_OMM_VERS" version="2.0">
<header><CREATION_DATE/><ORIGINATOR/></header><body><segment><metadata><OBJECT_NAME>ONEWEB-0587</OBJECT_NAME><OBJECT_ID>2022-166N</OBJECT_ID><CENTER_NAME>EARTH</CENTER_NAME><REF_FRAME>TEME</REF_FRAME><TIME_SYSTEM>UTC</TIME_SYSTEM><MEAN_ELEMENT_THEORY>SGP4</MEAN_ELEMENT_THEORY></metadata><data><meanElements><EPOCH>2025-12-10T13:47:41.493120</EPOCH><MEAN_MOTION>13.21825429</MEAN_MOTION><ECCENTRICITY>.0001715</ECCENTRICITY><INCLINATION>87.9228</INCLINATION><RA_OF_ASC_NODE>281.5746</RA_OF_ASC_NODE><ARG_OF_PERICENTER>64.2932</ARG_OF_PERICENTER><MEAN_ANOMALY>295.8379</MEAN_ANOMALY></meanElements><tleParameters><EPHEMERIS_TYPE>0</EPHEMERIS_TYPE><CLASSIFICATION_TYPE>U</CLASSIFICATION_TYPE><NORAD_CAT_ID>54654</NORAD_CAT_ID><ELEMENT_SET_NO>999</ELEMENT_SET_NO><REV_AT_EPOCH>14676</REV_AT_EPOCH><BSTAR>.56053E-4</BSTAR><MEAN_MOTION_DOT>.36E-6</MEAN_MOTION_DOT><MEAN_MOTION_DDOT>0</MEAN_MOTION_DDOT></tleParameters></data></segment></body></omm>

</ndm>
