ONEWEB-0545             
1 54647U 22166F   25344.78213039  .00000080  00000+0  16329-3 0  9995
2 54647  87.9217 281.5647 0002006  89.0634 271.0730 13.21826181146614
ONEWEB-0580             
1 54648U 22166G   25344.52870979  .00000148  00000+0  32765-3 0  9997
2 54648  87.9217 281.6142 0001790  88.6960 271.4379 13.21825455146629
ONEWEB-0582             
1 54649U 22166H   25344.79858069  .00000008  00000+0 -12082-4 0  9990
2 54649  87.9219 281.5533 0001921  92.7929 267.3425 13.21825047146636
ONEWEB-0583             
1 54650U 22166J   25344.81009896 -.00000004  00000+0 -41817-4 0  9996
2 54650  87.9217 281.5757 0001866  80.2245 279.9099 13.21824697146642
ONEWEB-0584             
1 54651U 22166K   25344.52705141  .00000058  00000+0  10873-3 0  9995
2 54651  87.9216 281.6186 0001719  90.1054 270.0277 13.21824518146590
ONEWEB-0585             
1 54652U 22166L   25344.77882500  .00000088  00000+0  18076-3 0  9994
2 54652  87.9216 281.5531 0001747  73.6191 286.5135 13.21827739146631
ONEWEB-0586             
1 54653U 22166M   25344.56491916  .00000067  00000+0  13113-3 0  9993
2 54653  87.9218 281.6210 0001837  82.6690 277.4653 13.21824595146601
ONEWEB-0587             
1 54654U 22166N   25344.57478580  .00000036  00000+0  56053-4 0  9994
2 54654  87.9228 281.5746 0001715  64.2932 295.8379 13.21825429146769
